{
  "norad_id": 67101,
  "name": "STARLINK-36200",
  "history": [
    {
      "epoch": "2026-03-28T22:00:20.019168Z",
      "apogee_km": 573.3420513203873,
      "perigee_km": 570.7187801309965,
      "latitude_deg": -1.5308747877128465e-05,
      "longitude_deg": 169.71170905347108,
      "height_km": 574.5338564194409,
      "semi_major_axis_km": 6950.167415725692,
      "eccentricity": 0.00018872,
      "inclination_deg": 70.0008,
      "raan_deg": 326.1256,
      "arg_perigee_deg": 266.6303,
      "mean_anomaly_deg": 93.464,
      "mean_motion_rev_day": 14.98338238
    },
    {
      "epoch": "2026-03-29T01:12:36.116064Z",
      "apogee_km": 573.3303797835706,
      "perigee_km": 570.728237517611,
      "latitude_deg": 2.981549685764553e-05,
      "longitude_deg": 121.17605201778775,
      "height_km": 574.5061829210302,
      "semi_major_axis_km": 6950.1663086505905,
      "eccentricity": 0.0001872,
      "inclination_deg": 70.0007,
      "raan_deg": 325.7886,
      "arg_perigee_deg": 267.7729,
      "mean_anomaly_deg": 92.3216,
      "mean_motion_rev_day": 14.98338596
    },
    {
      "epoch": "2026-03-29T22:02:21.050880Z",
      "apogee_km": 573.3628878820027,
      "perigee_km": 570.728768590101,
      "latitude_deg": 1.2234482965032094e-05,
      "longitude_deg": 165.6948949598306,
      "height_km": 574.4747698953128,
      "semi_major_axis_km": 6950.182828236051,
      "eccentricity": 0.0001895,
      "inclination_deg": 70.0004,
      "raan_deg": 323.6001,
      "arg_perigee_deg": 269.8855,
      "mean_anomaly_deg": 90.2087,
      "mean_motion_rev_day": 14.98333254
    }
  ]
}